IRIDIUM 57              
1 25273U 98019B   24149.90391055  .00000496  00000+0  16655-3 0  9992
2 25273  86.3933 306.2025 0002073  90.0770 270.0664 14.35225925369658
IRIDIUM 69              
1 25319U 98026A   24149.85160703  .00000653  00000+0  20120-3 0  9996
2 25319  86.3980 257.5573 0002342 155.5994 204.5316 14.40009597367735
IRIDIUM 71              
1 25320U 98026B   24149.78636165  .00000620  00000+0  18954-3 0  9996
2 25320  86.3984 252.3485 0000078  16.8114 343.3088 14.40323482368240
IRIDIUM 73              
1 25344U 98032C   24149.71007642  .00000626  00000+0  15461-3 0  9990
2 25344  86.4460 209.8553 0002066 107.3813 252.7618 14.50548251374805
IRIDIUM 82              
1 25467U 98051A   24149.92309238  .00007792  00000+0  39813-3 0  9994
2 25467  86.3748 294.9101 0126311 291.8622  66.9220 15.09712772365585
IRIDIUM 2               
1 25527U 98066A   24149.92564507  .00205460  00000+0  92872-3 0  9995
2 25527  85.4978 315.7510 0001800 267.0048  93.1021 15.83450567404875
